CCSDS_OMM_VERS = 2.0
CREATION_DATE  = 
ORIGINATOR     = 

OBJECT_NAME    = DELTA 2 R/B(1)
OBJECT_ID      = 1990-008B
CENTER_NAME    = EARTH
REF_FRAME      = TEME
TIME_SYSTEM    = UTC
MEAN_ELEMENT_THEORY = SGP/SGP4

EPOCH          = 2026-01-11T18:23:58.843392
MEAN_MOTION    = 15.48314385
ECCENTRICITY   = .01026326
INCLINATION    = 35.6032
RA_OF_ASC_NODE = 186.2100
ARG_OF_PERICENTER = 92.1756
MEAN_ANOMALY   = 269.0733

EPHEMERIS_TYPE = 0
CLASSIFICATION_TYPE = U
NORAD_CAT_ID   = 20453
ELEMENT_SET_NO = 999
REV_AT_EPOCH   = 91728
BSTAR          = .76844123E-3
MEAN_MOTION_DOT = .52116E-3
MEAN_MOTION_DDOT = 0

CCSDS_OMM_VERS = 2.0
CREATION_DATE  = 
ORIGINATOR     = 

OBJECT_NAME    = COSMOS 2058
OBJECT_ID      = 1990-010A
CENTER_NAME    = EARTH
REF_FRAME      = TEME
TIME_SYSTEM    = UTC
MEAN_ELEMENT_THEORY = SGP/SGP4

EPOCH          = 2026-01-11T23:06:48.976704
MEAN_MOTION    = 15.10796983
ECCENTRICITY   = .0010219
INCLINATION    = 82.4689
RA_OF_ASC_NODE = 103.3015
ARG_OF_PERICENTER = 164.7878
MEAN_ANOMALY   = 195.3661

EPHEMERIS_TYPE = 0
CLASSIFICATION_TYPE = U
NORAD_CAT_ID   = 20465
ELEMENT_SET_NO = 999
REV_AT_EPOCH   = 93367
BSTAR          = .2388979E-3
MEAN_MOTION_DOT = .3999E-4
MEAN_MOTION_DDOT = 0

CCSDS_OMM_VERS = 2.0
CREATION_DATE  = 
ORIGINATOR     = 

OBJECT_NAME    = SL-14 R/B
OBJECT_ID      = 1990-010B
CENTER_NAME    = EARTH
REF_FRAME      = TEME
TIME_SYSTEM    = UTC
MEAN_ELEMENT_THEORY = SGP/SGP4

EPOCH          = 2026-01-11T21:29:57.704928
MEAN_MOTION    = 14.83507091
ECCENTRICITY   = .00210982
INCLINATION    = 82.5041
RA_OF_ASC_NODE = 320.7262
ARG_OF_PERICENTER = 124.3886
MEAN_ANOMALY   = 235.9328

EPHEMERIS_TYPE = 0
CLASSIFICATION_TYPE = U
NORAD_CAT_ID   = 20466
ELEMENT_SET_NO = 999
REV_AT_EPOCH   = 92006
BSTAR          = .59416633E-4
MEAN_MOTION_DOT = .515E-5
MEAN_MOTION_DDOT = 0

CCSDS_OMM_VERS = 2.0
CREATION_DATE  = 
ORIGINATOR     = 

OBJECT_NAME    = SL-14 R/B
OBJECT_ID      = 1990-018B
CENTER_NAME    = EARTH
REF_FRAME      = TEME
TIME_SYSTEM    = UTC
MEAN_ELEMENT_THEORY = SGP/SGP4

EPOCH          = 2026-01-11T23:51:12.797568
MEAN_MOTION    = 14.82084048
ECCENTRICITY   = .00149258
INCLINATION    = 82.5216
RA_OF_ASC_NODE = 276.0904
ARG_OF_PERICENTER = 279.9969
MEAN_ANOMALY   = 79.9560

EPHEMERIS_TYPE = 0
CLASSIFICATION_TYPE = U
NORAD_CAT_ID   = 20511
ELEMENT_SET_NO = 999
REV_AT_EPOCH   = 91418
BSTAR          = .53514556E-4
MEAN_MOTION_DOT = .449E-5
MEAN_MOTION_DDOT = 0

CCSDS_OMM_VERS = 2.0
CREATION_DATE  = 
ORIGINATOR     = 

OBJECT_NAME    = HST
OBJECT_ID      = 1990-037B
CENTER_NAME    = EARTH
REF_FRAME      = TEME
TIME_SYSTEM    = UTC
MEAN_ELEMENT_THEORY = SGP/SGP4

EPOCH          = 2026-01-11T19:56:43.724832
MEAN_MOTION    = 15.28505044
ECCENTRICITY   = .00020592
INCLINATION    = 28.4671
RA_OF_ASC_NODE = 67.5961
ARG_OF_PERICENTER = 189.7357
MEAN_ANOMALY   = 170.3199

EPHEMERIS_TYPE = 0
CLASSIFICATION_TYPE = U
NORAD_CAT_ID   = 20580
ELEMENT_SET_NO = 999
REV_AT_EPOCH   = 76460
BSTAR          = .24973371E-3
MEAN_MOTION_DOT = .7357E-4
MEAN_MOTION_DDOT = 0

CCSDS_OMM_VERS = 2.0
CREATION_DATE  = 
ORIGINATOR     = 

OBJECT_NAME    = SL-16 R/B
OBJECT_ID      = 1990-046B
CENTER_NAME    = EARTH
REF_FRAME      = TEME
TIME_SYSTEM    = UTC
MEAN_ELEMENT_THEORY = SGP/SGP4

EPOCH          = 2026-01-11T20:39:40.155552
MEAN_MOTION    = 14.15006435
ECCENTRICITY   = .00132188
INCLINATION    = 70.9997
RA_OF_ASC_NODE = 57.2639
ARG_OF_PERICENTER = 21.9662
MEAN_ANOMALY   = 338.2024

EPHEMERIS_TYPE = 0
CLASSIFICATION_TYPE = U
NORAD_CAT_ID   = 20625
ELEMENT_SET_NO = 999
REV_AT_EPOCH   = 84035
BSTAR          = .13047019E-3
MEAN_MOTION_DOT = .205E-5
MEAN_MOTION_DDOT = 0

CCSDS_OMM_VERS = 2.0
CREATION_DATE  = 
ORIGINATOR     = 

OBJECT_NAME    = COSMOS 2084
OBJECT_ID      = 1990-055A
CENTER_NAME    = EARTH
REF_FRAME      = TEME
TIME_SYSTEM    = UTC
MEAN_ELEMENT_THEORY = SGP/SGP4

EPOCH          = 2026-01-11T22:19:24.291264
MEAN_MOTION    = 15.05240015
ECCENTRICITY   = .00266128
INCLINATION    = 62.7886
RA_OF_ASC_NODE = 169.1070
ARG_OF_PERICENTER = 179.2283
MEAN_ANOMALY   = 180.8863

EPHEMERIS_TYPE = 0
CLASSIFICATION_TYPE = U
NORAD_CAT_ID   = 20663
ELEMENT_SET_NO = 999
REV_AT_EPOCH   = 92777
BSTAR          = .24065353E-3
MEAN_MOTION_DOT = .3276E-4
MEAN_MOTION_DDOT = 0

CCSDS_OMM_VERS = 2.0
CREATION_DATE  = 
ORIGINATOR     = 

OBJECT_NAME    = SL-6 R/B(2)
OBJECT_ID      = 1990-055D
CENTER_NAME    = EARTH
REF_FRAME      = TEME
TIME_SYSTEM    = UTC
MEAN_ELEMENT_THEORY = SGP/SGP4

EPOCH          = 2026-01-11T21:40:15.216096
MEAN_MOTION    = 15.03255147
ECCENTRICITY   = .0016585
INCLINATION    = 62.7836
RA_OF_ASC_NODE = 86.9132
ARG_OF_PERICENTER = 327.3653
MEAN_ANOMALY   = 32.6420

EPHEMERIS_TYPE = 0
CLASSIFICATION_TYPE = U
NORAD_CAT_ID   = 20666
ELEMENT_SET_NO = 999
REV_AT_EPOCH   = 92965
BSTAR          = .17358137E-3
MEAN_MOTION_DOT = .217E-4
MEAN_MOTION_DDOT = 0

CCSDS_OMM_VERS = 2.0
CREATION_DATE  = 
ORIGINATOR     = 

OBJECT_NAME    = SL-8 R/B
OBJECT_ID      = 1990-078B
CENTER_NAME    = EARTH
REF_FRAME      = TEME
TIME_SYSTEM    = UTC
MEAN_ELEMENT_THEORY = SGP/SGP4

EPOCH          = 2026-01-11T19:42:39.212352
MEAN_MOTION    = 14.87000572
ECCENTRICITY   = .0368828
INCLINATION    = 82.9055
RA_OF_ASC_NODE = 302.3655
ARG_OF_PERICENTER = 204.6090
MEAN_ANOMALY   = 153.7142

EPHEMERIS_TYPE = 0
CLASSIFICATION_TYPE = U
NORAD_CAT_ID   = 20775
ELEMENT_SET_NO = 999
REV_AT_EPOCH   = 80084
BSTAR          = .52828218E-3
MEAN_MOTION_DOT = .17376E-3
MEAN_MOTION_DDOT = 0

CCSDS_OMM_VERS = 2.0
CREATION_DATE  = 
ORIGINATOR     = 

OBJECT_NAME    = SL-8 R/B
OBJECT_ID      = 1991-006B
CENTER_NAME    = EARTH
REF_FRAME      = TEME
TIME_SYSTEM    = UTC
MEAN_ELEMENT_THEORY = SGP/SGP4

EPOCH          = 2026-01-11T23:27:45.448704
MEAN_MOTION    = 13.77492457
ECCENTRICITY   = .00221643
INCLINATION    = 82.9407
RA_OF_ASC_NODE = 212.2198
ARG_OF_PERICENTER = 191.2081
MEAN_ANOMALY   = 279.0601

EPHEMERIS_TYPE = 0
CLASSIFICATION_TYPE = U
NORAD_CAT_ID   = 21088
ELEMENT_SET_NO = 999
REV_AT_EPOCH   = 75626
BSTAR          = -.31823059E-4
MEAN_MOTION_DOT = -.16E-6
MEAN_MOTION_DDOT = 0

CCSDS_OMM_VERS = 2.0
CREATION_DATE  = 
ORIGINATOR     = 

OBJECT_NAME    = OKEAN-3
OBJECT_ID      = 1991-039A
CENTER_NAME    = EARTH
REF_FRAME      = TEME
TIME_SYSTEM    = UTC
MEAN_ELEMENT_THEORY = SGP/SGP4

EPOCH          = 2026-01-11T14:48:13.014720
MEAN_MOTION    = 15.04336772
ECCENTRICITY   = .00151991
INCLINATION    = 82.5163
RA_OF_ASC_NODE = 32.1203
ARG_OF_PERICENTER = 159.2034
MEAN_ANOMALY   = 200.9814

EPHEMERIS_TYPE = 0
CLASSIFICATION_TYPE = U
NORAD_CAT_ID   = 21397
ELEMENT_SET_NO = 999
REV_AT_EPOCH   = 85645
BSTAR          = .18557442E-3
MEAN_MOTION_DOT = .262E-4
MEAN_MOTION_DDOT = 0

CCSDS_OMM_VERS = 2.0
CREATION_DATE  = 
ORIGINATOR     = 

OBJECT_NAME    = COSMOS 2151
OBJECT_ID      = 1991-042A
CENTER_NAME    = EARTH
REF_FRAME      = TEME
TIME_SYSTEM    = UTC
MEAN_ELEMENT_THEORY = SGP/SGP4

EPOCH          = 2026-01-11T21:55:47.336448
MEAN_MOTION    = 14.99840506
ECCENTRICITY   = .00113037
INCLINATION    = 82.4978
RA_OF_ASC_NODE = 138.4241
ARG_OF_PERICENTER = 248.7817
MEAN_ANOMALY   = 111.2200

EPHEMERIS_TYPE = 0
CLASSIFICATION_TYPE = U
NORAD_CAT_ID   = 21422
ELEMENT_SET_NO = 999
REV_AT_EPOCH   = 85468
BSTAR          = .15855658E-3
MEAN_MOTION_DOT = .1991E-4
MEAN_MOTION_DDOT = 0

