DELTA 2 R/B(1)          
1 20453U 90008B   26011.76665328  .00052116  00000+0  76844-3 0  9990
2 20453  35.6032 186.2100 0102632  92.1756 269.0733 15.48314385917286
COSMOS 2058             
1 20465U 90010A   26011.96306686  .00003999  00000+0  23890-3 0  9995
2 20465  82.4689 103.3015 0010219 164.7878 195.3661 15.10796983933671
SL-14 R/B               
1 20466U 90010B   26011.89580677  .00000515  00000+0  59417-4 0  9998
2 20466  82.5041 320.7262 0021098 124.3886 235.9328 14.83507091920061
SL-14 R/B               
1 20511U 90018B   26011.99389812  .00000449  00000+0  53515-4 0  9995
2 20511  82.5216 276.0904 0014925 279.9969  79.9560 14.82084048914183
HST                     
1 20580U 90037B   26011.83106163  .00007357  00000+0  24973-3 0  9991
2 20580  28.4671  67.5961 0002059 189.7357 170.3199 15.28505044764602
SL-16 R/B               
1 20625U 90046B   26011.86088143  .00000205  00000+0  13047-3 0  9996
2 20625  70.9997  57.2639 0013218  21.9662 338.2024 14.15006435840352
COSMOS 2084             
1 20663U 90055A   26011.93014226  .00003276  00000+0  24065-3 0  9990
2 20663  62.7886 169.1070 0026612 179.2283 180.8863 15.05240015927778
SL-6 R/B(2)             
1 20666U 90055D   26011.90295389  .00002170  00000+0  17358-3 0  9990
2 20666  62.7836  86.9132 0016585 327.3653  32.6420 15.03255147929658
SL-8 R/B                
1 20775U 90078B   26011.82128718  .00017376  00000+0  52828-3 0  9993
2 20775  82.9055 302.3655 0368828 204.6090 153.7142 14.87000572800849
SL-8 R/B                
1 21088U 91006B   26011.97760936 -.00000016  00000+0 -31823-4 0  9991
2 21088  82.9407 212.2198 0022164 191.2081 279.0601 13.77492457756263
OKEAN-3                 
1 21397U 91039A   26011.61681730  .00002620  00000+0  18557-3 0  9994
2 21397  82.5163  32.1203 0015199 159.2034 200.9814 15.04336772856459
COSMOS 2151             
1 21422U 91042A   26011.91374232  .00001991  00000+0  15856-3 0  9995
2 21422  82.4978 138.4241 0011303 248.7817 111.2200 14.99840506854683
